COMMENT,ORIGINATOR,NORAD_CAT_ID,OBJECT_NAME,OBJECT_TYPE,CLASSIFICATION_TYPE,INTLDES,EPOCH,EPOCH_MICROSECONDS,MEAN_MOTION,ECCENTRICITY,INCLINATION,RA_OF_ASC_NODE,ARG_OF_PERICENTER,MEAN_ANOMALY,EPHEMERIS_TYPE,ELEMENT_SET_NO,REV_AT_EPOCH,BSTAR,MEAN_MOTION_DOT,MEAN_MOTION_DDOT,FILE,TLE_LINE0,TLE_LINE1,TLE_LINE2,OBJECT_ID,OBJECT_NUMBER,SEMIMAJOR_AXIS,PERIOD,APOGEE,PERIGEE
"GENERATED VIA SPACETRACK.ORG API","JSPOC","11060","TIROS N","PAYLOAD","U","78096A","2016-01-11 15:54:21","453120","14.18089697","0.0011019","98.9672","52.4712","36.7108","323.4819","0","999","13868","4.9535e-05","5.6e-07","0","1979502","0 TIROS N","1 11060U 78096A   16011.66274830 +.00000056 +00000-0 +49535-4 0  9994","2 11060 098.9672 052.4712 0011019 036.7108 323.4819 14.18089697138688","1978-096A","11060","7209.957","101.545","839.767","823.877"
"GENERATED VIA SPACETRACK.ORG API","JSPOC","15936","OSCAR 24","PAYLOAD","U","85066B","2016-01-11 15:54:24","43392","13.35457563","0.0168427","90.1044","38.2474","225.8784","274.7866","0","999","48281","7.4979e-05","4.9e-07","0","1979502","0 OSCAR 24","1 15936U 85066B   16011.66277828 +.00000049 +00000-0 +74979-4 0  9997","2 15936 090.1044 038.2474 0168427 225.8784 274.7866 13.35457563482811","1985-066B","15936","7504.385","107.828","1252.644","999.856"
"GENERATED VIA SPACETRACK.ORG API","JSPOC","24297","COSMOS 2333","PAYLOAD","U","96051A","2016-01-11 15:54:28","206144","14.1325389","0.0025725","70.9034","72.9944","265.6782","220.8248","0","999","99832","0.00015456","2.42e-06","0","1979157","0 COSMOS 2333","1 24297U 96051A   16011.66282646  .00000242  00000-0  15456-3 0  9996","2 24297  70.9034  72.9944 0025725 265.6782 220.8248 14.13253890998324","1996-051A","24297","7226.395","101.892","866.850","829.670"
"GENERATED VIA SPACETRACK.ORG API","JSPOC","12803","COSMOS 1304","PAYLOAD","U","81087A","2016-01-11 15:54:36","309600","13.87421962","0.004443","82.9338","49.8009","276.7343","233.5572","0","999","11461","3.2987e-05","5.4e-07","0","1979502","0 COSMOS 1304","1 12803U 81087A   16011.66292025 +.00000054 +00000-0 +32987-4 0  9991","2 12803 082.9338 049.8009 0044430 276.7343 233.5572 13.87421962114619","1981-087A","12803","7315.816","103.789","970.185","905.177"
"GENERATED VIA SPACETRACK.ORG API","JSPOC","28129","NAVSTAR 53 (USA 175)","PAYLOAD","U","03058A","2016-01-11 15:54:36","307008","2.00395694","0.0077451","52.8772","179.7071","244.4811","114.6978","0","999","8838","0","6.7e-07","0","1979502","0 NAVSTAR 53 (USA 175)","1 28129U 03058A   16011.66292022 +.00000067 +00000-0 +00000-0 0  9999","2 28129 052.8772 179.7071 0077451 244.4811 114.6978 02.00395694088386","2003-058A","28129","26575.182","718.578","20402.874","19991.219"
"GENERATED VIA SPACETRACK.ORG API","JSPOC","24936","AMC-3 (GE-3)","PAYLOAD","U","97050A","2016-01-11 15:54:39","56256","1.00270535","0.0002454","0.0276","300.8","341.8864","359.5633","0","999","6724","0.0001","-2.71e-06","0","1979502","0 AMC-3 (GE-3)","1 24936U 97050A   16011.66295204 -.00000271 +00000-0 +10000-3 0  9993","2 24936 000.0276 300.8000 0002454 341.8864 359.5633 01.00270535067247","1997-050A","24936","42165.082","1436.114","35797.294","35776.600"
"GENERATED VIA SPACETRACK.ORG API","JSPOC","22308","SL-8 R/B","ROCKET BODY","U","93001B","2016-01-11 15:54:52","634880","13.7565289","0.0022689","82.933","196.1873","219.7344","190.8437","0","999","15419","0.00013697","1.47e-06","0","1979502","0 SL-8 R/B","1 22308U 93001B   16011.66310920 +.00000147 +00000-0 +13697-3 0  9995","2 22308 082.9330 196.1873 0022689 219.7344 190.8437 13.75652890154192","1993-001B","22308","7357.482","104.677","996.041","962.654"
"GENERATED VIA SPACETRACK.ORG API","JSPOC","10000","OPS 9437 (DSCS 2-7)","PAYLOAD","U","77034A","2016-01-11 15:54:53","224128","0.96672929","0.0020647","15.7689","333.6664","258.9481","347.6057","0","999","12870","0","-7.5e-07","0","1979105","0 OPS 9437 (DSCS 2-7)","1 10000U 77034A   16011.66311602 -.00000075  00000-0  00000+0 0  9998","2 10000  15.7689 333.6664 0020647 258.9481 347.6057  0.96672929128706","1977-034A","10000","43204.792","1489.558","36915.862","36737.452"
"GENERATED VIA SPACETRACK.ORG API","JSPOC","39483","COSMOS 2488","PAYLOAD","U","13076A","2016-01-11 15:55:12","151776","12.42891131","0.0020855","82.4836","22.8094","117.7517","242.5683","0","999","9284","0","1e-07","0","1979154","0 COSMOS 2488","1 39483U 13076A   16011.66333509  .00000010  00000-0  00000+0 0  9998","2 39483  82.4836  22.8094 0020855 117.7517 242.5683 12.42891131 92849","2013-076A","39483","7872.508","115.858","1510.791","1477.954"
"GENERATED VIA SPACETRACK.ORG API","JSPOC","12295","KIKU 3 (ETS 4)","PAYLOAD","U","81012A","2016-01-11 15:55:31","547712","5.48509594","0.5089912","28.4246","161.4948","275.9185","30.7358","0","999","42467","0.00078751","5.772e-05","0","1979132","0 KIKU 3 (ETS 4)","1 12295U 81012A   16011.66355958  .00005772  00000-0  78751-3 0  9999","2 12295  28.4246 161.4948 5089912 275.9185  30.7358  5.48509594424679","1981-012A","12295","13581.435","262.529","14116.132","290.469"
"GENERATED VIA SPACETRACK.ORG API","JSPOC","39135","BEESAT 3","PAYLOAD","U","13015F","2016-01-11 15:55:52","486752","15.12858528","0.001589","64.873","112.9642","231.4809","128.4891","0","999","14979","0.00025439","4.32e-05","0","1979502","0 BEESAT 3","1 39135U 13015F   16011.66380193 +.00004320 +00000-0 +25439-3 0  9991","2 39135 064.8730 112.9642 0015890 231.4809 128.4891 15.12858528149794","2013-015F","39135","6905.624","95.184","538.462","516.516"
"GENERATED VIA SPACETRACK.ORG API","JSPOC","21666","COSMOS 2154","PAYLOAD","U","91059A","2016-01-11 15:55:57","61632","13.73281993","0.002505","82.9056","57.8648","4.7896","124.5795","0","999","22222","3.3512e-05","4.6e-07","0","1979127","0 COSMOS 2154","1 21666U 91059A   16011.66385488  .00000046  00000-0  33512-4 0  9990","2 21666  82.9056  57.8648 0025050   4.7896 124.5795 13.73281993222226","1991-059A","21666","7365.948","104.858","1006.265","969.362"
"GENERATED VIA SPACETRACK.ORG API","JSPOC","15935","OSCAR 30","PAYLOAD","U","85066A","2016-01-11 15:56:09","910176","13.35573989","0.0167697","90.1168","43.8304","221.7803","276.2473","0","999","48086","7.9005e-05","5.1e-07","0","1979502","0 OSCAR 30","1 15935U 85066A   16011.66400359 +.00000051 +00000-0 +79005-4 0  9991","2 15935 090.1168 043.8304 0167697 221.7803 276.2473 13.35573989480861","1985-066A","15935","7503.948","107.818","1251.652","999.975"
"GENERATED VIA SPACETRACK.ORG API","JSPOC","25346","IRIDIUM 75","PAYLOAD","U","98032E","2016-01-11 15:56:31","687296","14.3421634","0.0002112","86.3965","82.5608","96.8031","55.4428","0","999","92477","9.3039e-05","2.8e-06","0","1979039","0 IRIDIUM 75","1 25346U 98032E   16011.66425564  .00000280  00000-0  93039-4 0  9997","2 25346  86.3965  82.5608 0002112  96.8031  55.4428 14.34216340924776","1998-032E","25346","7155.808","100.403","779.185","776.162"
"GENERATED VIA SPACETRACK.ORG API","JSPOC","28938","H-2A R/B","ROCKET BODY","U","06004B","2016-01-11 15:57:05","653728","2.71928182","0.6953362","28.2423","242.6973","56.3718","351.6387","0","999","9008","0.0029766","0.00022866","0","1979502","0 H-2A R/B","1 28938U 06004B   16011.66464877 +.00022866 +00000-0 +29766-2 0  9993","2 28938 028.2423 242.6973 6953362 056.3718 351.6387 02.71928182090080","2006-004B","28938","21681.984","529.551","30380.118","227.580"
"GENERATED VIA SPACETRACK.ORG API","JSPOC","11883","SL-8 R/B","ROCKET BODY","U","80058J","2016-01-11 15:57:15","156864","12.23904973","0.0132443","74.0121","79.9843","94.207","73.0613","0","999","58647","0.00020299","9e-08","0","1979502","0 SL-8 R/B","1 11883U 80058J   16011.66475876 +.00000009 +00000-0 +20299-3 0  9994","2 11883 074.0121 079.9843 0132443 094.2070 073.0613 12.23904973586477","1980-058J","11883","7953.715","117.656","1680.921","1470.238"
"GENERATED VIA SPACETRACK.ORG API","JSPOC","13770","COSMOS 1437","PAYLOAD","U","83003A","2016-01-11 15:57:28","19232","15.43894895","0.0006677","81.1603","66.845","295.1631","64.8919","0","999","80568","0.00018606","8.484e-05","0","1979152","0 COSMOS 1437","1 13770U 83003A   16011.66490763  .00008484  00000-0  18606-3 0  9990","2 13770  81.1603  66.8450 0006677 295.1631  64.8919 15.43894895805681","1983-003A","13770","6812.764","93.270","439.178","430.080"
"GENERATED VIA SPACETRACK.ORG API","JSPOC","27465","COSMOS 2391","PAYLOAD","U","02036B","2016-01-11 15:57:35","136000","12.44870061","0.0025291","82.48","204.8488","310.4568","49.431","0","999","61407","3.1552e-05","1.4e-07","0","1979114","0 COSMOS 2391","1 27465U 02036B   16011.66499000  .00000014  00000-0  31552-4 0  9993","2 27465  82.4800 204.8488 0025291 310.4568  49.4310 12.44870061614070","2002-036B","27465","7864.162","115.674","1505.917","1466.138"
"GENERATED VIA SPACETRACK.ORG API","JSPOC","25485","MOLNIYA 1-91","PAYLOAD","U","98054A","2016-01-11 15:57:46","564128","2.00712805","0.7321746","61.8916","199.5628","265.3385","82.2359","0","999","12665","0.00084768","5.94e-06","0","1979237","0 MOLNIYA 1-91","1 25485U 98054A   16011.66512227  .00000594  00000-0  84768-3 0  9994","2 25485  61.8916 199.5628 7321746 265.3385  82.2359  2.00712805126653","1998-054A","25485","26547.183","717.443","39606.222","731.875"
"GENERATED VIA SPACETRACK.ORG API","JSPOC","5214","COSMOS 415","PAYLOAD","U","71041E","2016-01-11 15:59:13","612128","12.4743695","0.0032646","74.0157","89.9129","247.5446","267.3066","0","999","3461","0.00013938","5e-08","0","1979502","0 COSMOS 415","1  5214U 71041E   16011.66612977 +.00000005 +00000-0 +13938-3 0  9990","2  5214 074.0157 089.9129 0032646 247.5446 267.3066 12.47436950034614","1971-041E","5214","7853.370","115.436","1500.873","1449.597"
